OBJECT_NAME,OBJECT_ID,EPOCH,MEAN_MOTION,ECCENTRICITY,INCLINATION,RA_OF_ASC_NODE,ARG_OF_PERICENTER,MEAN_ANOMALY,EPHEMERIS_TYPE,CLASSIFICATION_TYPE,NORAD_CAT_ID,ELEMENT_SET_NO,REV_AT_EPOCH,BSTAR,MEAN_MOTION_DOT,MEAN_MOTION_DDOT
FLOCK 4BE-18,2024-149N,2026-06-16T04:08:04.439904,15.41830749,.0002797,97.3732,250.8909,239.6217,120.4754,0,U,60480,999,10215,.348E-3,.14675E-3,0
FLOCK 4BE-7,2024-149P,2026-06-16T04:17:24.476064,15.40281702,.0002,97.3764,250.2386,240.0416,120.0631,0,U,60481,999,10209,.48095E-3,.19308E-3,0
TOMORROW-S2,2024-149T,2026-06-16T04:30:10.814688,15.32738900,.0001267,97.3822,248.1507,268.8559,91.2538,0,U,60485,999,10193,.21496E-3,.6718E-4,0
FLOCK 4BE-36,2024-149U,2026-06-16T05:01:13.420704,15.42697574,.0002354,97.3749,251.6253,257.5031,102.5953,0,U,60486,999,10220,.29672E-3,.12864E-3,0
FLOCK 4BE-25,2024-149V,2026-06-16T04:15:29.926080,15.38814793,.0001227,97.3804,250.3206,222.9910,137.1240,0,U,60487,999,10208,.301E-3,.11474E-3,0
FLOCK 4BE-31,2024-149W,2026-06-16T04:13:43.196160,15.44057891,.0001267,97.3803,252.4474,256.9567,103.1540,0,U,60488,999,10222,.37329E-3,.16973E-3,0
FLOCK 4BE-20,2024-149X,2026-06-16T04:55:49.661760,15.38033993,.0002488,97.3702,249.2304,253.9818,106.1153,0,U,60489,999,10206,.28936E-3,.10749E-3,0
FLOCK 4BE-23,2024-149Y,2026-06-16T04:41:25.175328,15.37651236,.0001989,97.3787,249.5964,263.8916,96.2102,0,U,60490,999,10204,.30014E-3,.11015E-3,0
FLOCK 4BE-15,2024-149Z,2026-06-16T04:31:42.745152,15.59566831,.0003027,97.3689,252.5311,240.8572,119.2381,0,U,60491,999,10227,.95872E-3,.76671E-3,0
FLOCK 4BE-17,2024-149AA,2026-06-16T04:20:35.130624,15.39759167,.0001995,97.3779,250.5419,240.1440,119.9607,0,U,60492,999,10210,.32669E-3,.12854E-3,0
NUSAT-50 (NANCY ROMAN),2024-149AB,2026-06-16T04:29:42.872928,15.29841839,.0003367,97.3793,248.4498,176.8151,183.3111,0,U,60493,999,10197,.27308E-3,.7818E-4,0
FLOCK 4BE-22,2024-149AC,2026-06-16T03:55:18.935904,15.41140521,.000233,97.3739,250.7144,259.3654,100.7330,0,U,60494,999,10214,.32941E-3,.13569E-3,0
FLOCK 4BE-34,2024-149AD,2026-06-16T04:20:00.610368,15.41132832,.0002141,97.3788,251.5531,273.0045,87.0956,0,U,60495,999,10217,.31195E-3,.12841E-3,0
TYCHE,2024-149AE,2026-06-16T03:38:52.742112,15.25981164,.0000609,97.3757,244.9820,254.7433,105.3738,0,U,60496,999,10174,.15014E-3,.3786E-4,0
FLOCK 4BE-32,2024-149AF,2026-06-16T03:35:43.425888,15.42125536,.000237,97.3727,251.0653,263.7643,96.3334,0,U,60497,999,10217,.32045E-3,.13638E-3,0
NUSAT-48 (HENRIETTA LEAVITT),2024-149AG,2026-06-16T04:13:20.068608,15.29846174,.0002408,97.3926,248.6800,282.6949,77.4022,0,U,60498,999,10198,.26916E-3,.7705E-4,0
FLOCK 4BE-30,2024-149AH,2026-06-16T03:56:06.302976,15.56285969,.0004082,97.3780,252.6489,234.8120,125.2752,0,U,60499,999,10161,.14904E-2,.105899E-2,0
NUSAT-49 (KLARA DAN VON NEUMANN),2024-149AJ,2026-06-16T03:41:50.163648,15.29931367,.0001007,97.3784,248.4486,346.9694,13.1521,0,U,60500,999,10197,.24954E-3,.7156E-4,0
FLOCK 4BE-11,2024-149AK,2026-06-16T05:02:07.107072,15.42952660,.0002508,97.3705,251.3553,263.0632,97.0330,0,U,60501,999,10220,.31063E-3,.13589E-3,0
YAM-7,2024-149AN,2026-06-16T04:59:38.443776,15.31808150,.0002007,97.3787,247.4613,313.0311,47.0762,0,U,60504,999,10190,.20106E-3,.6097E-4,0
FLOCK 4BE-24,2024-149AP,2026-06-16T04:42:52.682112,15.43040650,.0002706,97.3723,251.5970,279.2650,80.8292,0,U,60505,999,10221,.37634E-3,.16536E-3,0
LUR-1,2024-149AQ,2026-06-16T04:44:08.030688,15.30095162,.0002884,97.3742,246.0324,324.8243,35.2807,0,U,60506,999,10182,.19523E-3,.561E-4,0
TANAGER-1,2024-149AR,2026-06-15T17:37:44.858208,15.44920515,.00040107,97.2612,260.9852,316.0052,44.0877,0,U,60507,999,10281,.87702047E-4,.4035E-4,0
EAGLEEYE,2024-149AS,2026-06-15T18:26:56.679648,15.70670533,.00041401,97.3733,260.0282,240.9582,119.1266,0,U,60508,999,10271,.66144283E-3,.82165E-3,0
FLOCK 4BE-29,2024-149AT,2026-06-16T04:59:26.092896,15.44121280,.00014,97.3820,253.0656,299.2938,60.8170,0,U,60509,999,10226,.31306E-3,.14246E-3,0
TRANSPORTER-11 OBJECT AU,2024-149AU,2026-06-16T03:33:40.801824,15.40198401,.0002258,97.3736,250.8602,295.7195,64.3818,0,U,60510,999,10215,.29513E-3,.11772E-3,0
FLOCK 4BE-2,2024-149AV,2026-06-16T05:18:46.050048,15.52618969,.000332,97.3842,254.4880,258.1894,101.8987,0,U,60511,999,10235,.81208E-3,.50098E-3,0
FLOCK 4BE-13,2024-149AW,2026-06-16T04:22:44.657184,15.41865062,.000286,97.3728,251.5831,265.5801,94.5119,0,U,60512,999,10221,.26905E-3,.11334E-3,0
FLOCK 4BE-27,2024-149AX,2026-06-16T03:37:31.927872,15.34430838,.0002549,97.3830,249.0013,321.8276,38.2786,0,U,60513,999,10198,.21993E-3,.7254E-4,0
