FLOCK 4BE-18            
1 60480U 24149N   26167.17227361  .00014675  00000+0  34800-3 0  9999
2 60480  97.3732 250.8909 0002797 239.6217 120.4754 15.41830749102153
FLOCK 4BE-7             
1 60481U 24149P   26167.17875551  .00019308  00000+0  48095-3 0  9999
2 60481  97.3764 250.2386 0002000 240.0416 120.0631 15.40281702102097
TOMORROW-S2             
1 60485U 24149T   26167.18762517  .00006718  00000+0  21496-3 0  9998
2 60485  97.3822 248.1507 0001267 268.8559  91.2538 15.32738900101932
FLOCK 4BE-36            
1 60486U 24149U   26167.20918311  .00012864  00000+0  29672-3 0  9990
2 60486  97.3749 251.6253 0002354 257.5031 102.5953 15.42697574102206
FLOCK 4BE-25            
1 60487U 24149V   26167.17742970  .00011474  00000+0  30100-3 0  9997
2 60487  97.3804 250.3206 0001227 222.9910 137.1240 15.38814793102081
FLOCK 4BE-31            
1 60488U 24149W   26167.17619440  .00016973  00000+0  37329-3 0  9992
2 60488  97.3803 252.4474 0001267 256.9567 103.1540 15.44057891102227
FLOCK 4BE-20            
1 60489U 24149X   26167.20543590  .00010749  00000+0  28936-3 0  9998
2 60489  97.3702 249.2304 0002488 253.9818 106.1153 15.38033993102069
FLOCK 4BE-23            
1 60490U 24149Y   26167.19543027  .00011015  00000+0  30014-3 0  9990
2 60490  97.3787 249.5964 0001989 263.8916  96.2102 15.37651236102049
FLOCK 4BE-15            
1 60491U 24149Z   26167.18868918  .00076671  00000+0  95872-3 0  9991
2 60491  97.3689 252.5311 0003027 240.8572 119.2381 15.59566831102279
FLOCK 4BE-17            
1 60492U 24149AA  26167.18096216  .00012854  00000+0  32669-3 0  9994
2 60492  97.3779 250.5419 0001995 240.1440 119.9607 15.39759167102100
NUSAT-50 (NANCY ROMAN)  
1 60493U 24149AB  26167.18730177  .00007818  00000+0  27308-3 0  9994
2 60493  97.3793 248.4498 0003367 176.8151 183.3111 15.29841839101975
FLOCK 4BE-22            
1 60494U 24149AC  26167.16341361  .00013569  00000+0  32941-3 0  9995
2 60494  97.3739 250.7144 0002330 259.3654 100.7330 15.41140521102144
FLOCK 4BE-34            
1 60495U 24149AD  26167.18056262  .00012841  00000+0  31195-3 0  9993
2 60495  97.3788 251.5531 0002141 273.0045  87.0956 15.41132832102175
TYCHE                   
1 60496U 24149AE  26167.15199933  .00003786  00000+0  15014-3 0  9994
2 60496  97.3757 244.9820 0000609 254.7433 105.3738 15.25981164101749
FLOCK 4BE-32            
1 60497U 24149AF  26167.14980817  .00013638  00000+0  32045-3 0  9993
2 60497  97.3727 251.0653 0002370 263.7643  96.3334 15.42125536102171
NUSAT-48 (HENRIETTA LE*)
1 60498U 24149AG  26167.17592672  .00007705  00000+0  26916-3 0  9993
2 60498  97.3926 248.6800 0002408 282.6949  77.4022 15.29846174101985
FLOCK 4BE-30            
1 60499U 24149AH  26167.16396184  .00105899  00000+0  14904-2 0  9999
2 60499  97.3780 252.6489 0004082 234.8120 125.2752 15.56285969101613
NUSAT-49 (KLARA DAN VO*)
1 60500U 24149AJ  26167.15405282  .00007156  00000+0  24954-3 0  9995
2 60500  97.3784 248.4486 0001007 346.9694  13.1521 15.29931367101973
FLOCK 4BE-11            
1 60501U 24149AK  26167.20980448  .00013589  00000+0  31063-3 0  9990
2 60501  97.3705 251.3553 0002508 263.0632  97.0330 15.42952660102203
YAM-7                   
1 60504U 24149AN  26167.20808384  .00006097  00000+0  20106-3 0  9993
2 60504  97.3787 247.4613 0002007 313.0311  47.0762 15.31808150101905
FLOCK 4BE-24            
1 60505U 24149AP  26167.19644308  .00016536  00000+0  37634-3 0  9999
2 60505  97.3723 251.5970 0002706 279.2650  80.8292 15.43040650102217
LUR-1                   
1 60506U 24149AQ  26167.19731517  .00005610  00000+0  19523-3 0  9997
2 60506  97.3742 246.0324 0002884 324.8243  35.2807 15.30095162101829
TANAGER-1               
1 60507U 24149AR  26166.73454697  .00004035  00000+0  87702-4 0  9993
2 60507  97.2612 260.9852 0004010 316.0052  44.0877 15.44920515102819
EAGLEEYE                
1 60508U 24149AS  26166.76871157  .00082165  00000+0  66144-3 0  9997
2 60508  97.3733 260.0282 0004140 240.9582 119.1266 15.70670533102716
FLOCK 4BE-29            
1 60509U 24149AT  26167.20794089  .00014246  00000+0  31306-3 0  9993
2 60509  97.3820 253.0656 0001400 299.2938  60.8170 15.44121280102266
TRANSPORTER-11 OBJECT AU
1 60510U 24149AU  26167.14838891  .00011772  00000+0  29513-3 0  9996
2 60510  97.3736 250.8602 0002258 295.7195  64.3818 15.40198401102159
FLOCK 4BE-2             
1 60511U 24149AV  26167.22136632  .00050098  00000+0  81208-3 0  9993
2 60511  97.3842 254.4880 0003320 258.1894 101.8987 15.52618969102351
FLOCK 4BE-13            
1 60512U 24149AW  26167.18246131  .00011334  00000+0  26905-3 0  9998
2 60512  97.3728 251.5831 0002860 265.5801  94.5119 15.41865062102213
FLOCK 4BE-27            
1 60513U 24149AX  26167.15106398  .00007254  00000+0  21993-3 0  9994
2 60513  97.3830 249.0013 0002549 321.8276  38.2786 15.34430838101987
